GLOBALSTAR M024         
1 25883U 99043A   25343.43551587 -.00000113  00000+0 -17113-2 0  9997
2 25883  52.0044 345.1996 0001534  21.7088 127.9921 11.10167096134325
GLOBALSTAR M027         
1 25884U 99043B   25343.54696164 -.00000104  00000+0 -15476-2 0  9991
2 25884  52.0229  67.8969 0020947 273.3606  86.4790 11.04372266160613
GLOBALSTAR M054         
1 25885U 99043C   25343.77419750 -.00000068  00000+0  89284-4 0  9999
2 25885  52.0101 165.2242 0005990 113.1370 259.2109 11.39224745139065
GLOBALSTAR M053         
1 25886U 99043D   25343.65981036 -.00000066  00000+0  89994-4 0  9994
2 25886  51.9966 122.3273 0003634  40.7952 332.6007 11.27669020139244
GLOBALSTAR M058         
1 25907U 99049A   25343.72384275 -.00000067  00000+0  23466-3 0  9996
2 25907  51.9967   0.4424 0001756 247.4916 112.5733 11.93206774562496
GLOBALSTAR M050         
1 25908U 99049B   25343.81763823 -.00000106  00000+0 -19562-3 0  9994
2 25908  52.0014 354.7465 0009142  22.5660 148.7099 12.07461962169405
GLOBALSTAR M033         
1 25909U 99049C   25343.39016995 -.00000073  00000+0  18119-3 0  9998
2 25909  51.9895 215.6519 0013147 266.3933  93.5411 12.20294163557135
GLOBALSTAR M055         
1 25910U 99049D   25343.37748339 -.00000063  00000+0  27122-3 0  9995
2 25910  52.0003 217.9038 0007555 127.7375 232.4162 12.29437652189833
